{"type": "FeatureCollection", "features": [ {"type": "Feature", "properties": {"norad_id": 34634, "name": "COSMOS 2251 DEB", "group": "cosmos-2251-debris", "lat": 7.714069053756329, "lon": 46.27467668281531, "alt_km": 734.5596458228947, "timestamp": "2025-12-07T22:37:43.476856+00:00", "meta": {"OBJECT_NAME": "COSMOS 2251 DEB", "OBJECT_ID": "1993-036XF", "EPOCH": "2025-12-07T04:35:31.983360", "MEAN_MOTION": 14.55633268, "ECCENTRICITY": 0.00445037, "INCLINATION": 74.0528, "RA_OF_ASC_NODE": 45.477, "ARG_OF_PERICENTER": 154.4435, "MEAN_ANOMALY": 237.4147, "EPHEMERIS_TYPE": 0, "CLASSIFICATION_TYPE": "U", "NORAD_CAT_ID": 34634, "ELEMENT_SET_NO": 999, "REV_AT_EPOCH": 88701, "BSTAR": 0.00063174258, "MEAN_MOTION_DOT": 2.767e-05, "MEAN_MOTION_DDOT": 0}, "tle": {"line1": "1 34634U 93036XF  25341.19134240  .00002767  00000+0  63174-3 0  9995", "line2": "2 34634  74.0528  45.4770 0044503 154.4435 237.4147 14.55633268887012"}}, "geometry": {"type": "Point", "coordinates": [46.27467668281531, 7.714069053756329]}}, {"type": "Feature", "properties": {"norad_id": 34635, "name": "COSMOS 2251 DEB", "group": "cosmos-2251-debris", "lat": 12.516557784799451, "lon": 83.62606017922487, "alt_km": 682.855915584948, "timestamp": "2025-12-07T22:37:43.476866+00:00", "meta": {"OBJECT_NAME": "COSMOS 2251 DEB", "OBJECT_ID": "1993-036XG", "EPOCH": "2025-12-07T06:20:56.084064", "MEAN_MOTION": 14.68143806, "ECCENTRICITY": 0.00290751, "INCLINATION": 74.046, "RA_OF_ASC_NODE": 81.2949, "ARG_OF_PERICENTER": 151.9281, "MEAN_ANOMALY": 237.7317, "EPHEMERIS_TYPE": 0, "CLASSIFICATION_TYPE": "U", "NORAD_CAT_ID": 34635, "ELEMENT_SET_NO": 999, "REV_AT_EPOCH": 73139, "BSTAR": 0.0022036104, "MEAN_MOTION_DOT": 0.00012745, "MEAN_MOTION_DDOT": 0}, "tle": {"line1": "1 34635U 93036XG  25341.26453801  .00012745  00000+0  22036-2 0  9999", "line2": "2 34635  74.0460  81.2949 0029075 151.9281 237.7317 14.68143806731391"}}, "geometry": {"type": "Point", "coordinates": [83.62606017922487, 12.516557784799451]}}, {"type": "Feature", "properties": {"norad_id": 34637, "name": "COSMOS 2251 DEB", "group": "cosmos-2251-debris", "lat": -15.207080257247968, "lon": 105.84554804092168, "alt_km": 731.4040523290396, "timestamp": "2025-12-07T22:37:43.476878+00:00", "meta": {"OBJECT_NAME": "COSMOS 2251 DEB", "OBJECT_ID": "1993-036XJ", "EPOCH": "2025-12-06T19:19:00.292800", "MEAN_MOTION": 14.60004377, "ECCENTRICITY": 0.00503776, "INCLINATION": 74.049, "RA_OF_ASC_NODE": 112.4735, "ARG_OF_PERICENTER": 184.4089, "MEAN_ANOMALY": 300.7701, "EPHEMERIS_TYPE": 0, "CLASSIFICATION_TYPE": "U", "NORAD_CAT_ID": 34637, "ELEMENT_SET_NO": 999, "REV_AT_EPOCH": 88440, "BSTAR": 0.0019512232, "MEAN_MOTION_DOT": 9.516e-05, "MEAN_MOTION_DDOT": 0}, "tle": {"line1": "1 34637U 93036XJ  25340.80486450  .00009516  00000+0  19512-2 0  9993", "line2": "2 34637  74.0490 112.4735 0050377 184.4089 300.7701 14.60004377884402"}}, "geometry": {"type": "Point", "coordinates": [105.84554804092168, -15.207080257247968]}}, {"type": "Feature", "properties": {"norad_id": 34641, "name": "COSMOS 2251 DEB", "group": "cosmos-2251-debris", "lat": 60.921721074322505, "lon": -120.63686736293941, "alt_km": 716.7383722169816, "timestamp": "2025-12-07T22:37:43.476893+00:00", "meta": {"OBJECT_NAME": "COSMOS 2251 DEB", "OBJECT_ID": "1993-036XN", "EPOCH": "2025-12-07T07:21:43.493760", "MEAN_MOTION": 14.51935512, "ECCENTRICITY": 0.00178485, "INCLINATION": 73.8391, "RA_OF_ASC_NODE": 92.0049, "ARG_OF_PERICENTER": 8.6323, "MEAN_ANOMALY": 22.0244, "EPHEMERIS_TYPE": 0, "CLASSIFICATION_TYPE": "U", "NORAD_CAT_ID": 34641, "ELEMENT_SET_NO": 999, "REV_AT_EPOCH": 88177, "BSTAR": 0.0017326288, "MEAN_MOTION_DOT": 6.982e-05, "MEAN_MOTION_DDOT": 0}, "tle": {"line1": "1 34641U 93036XN  25341.30675340  .00006982  00000+0  17326-2 0  9997", "line2": "2 34641  73.8391  92.0049 0017848   8.6323  22.0244 14.51935512881776"}}, "geometry": {"type": "Point", "coordinates": [-120.63686736293941, 60.921721074322505]}}, {"type": "Feature", "properties": {"norad_id": 34642, "name": "COSMOS 2251 DEB", "group": "cosmos-2251-debris", "lat": 30.10710709288146, "lon": -2.3149782258922684, "alt_km": 1005.5550043890307, "timestamp": "2025-12-07T22:37:43.476904+00:00", "meta": {"OBJECT_NAME": "COSMOS 2251 DEB", "OBJECT_ID": "1993-036XP", "EPOCH": "2025-12-06T11:09:03.378816", "MEAN_MOTION": 13.98947796, "ECCENTRICITY": 0.02077875, "INCLINATION": 74.0051, "RA_OF_ASC_NODE": 350.6706, "ARG_OF_PERICENTER": 171.9765, "MEAN_ANOMALY": 339.3192, "EPHEMERIS_TYPE": 0, "CLASSIFICATION_TYPE": "U", "NORAD_CAT_ID": 34642, "ELEMENT_SET_NO": 999, "REV_AT_EPOCH": 85205, "BSTAR": 0.0018241564, "MEAN_MOTION_DOT": 3.146e-05, "MEAN_MOTION_DDOT": 0}, "tle": {"line1": "1 34642U 93036XP  25340.46462244  .00003146  00000+0  18242-2 0  9998", "line2": "2 34642  74.0051 350.6706 0207787 171.9765 339.3192 13.98947796852055"}}, "geometry": {"type": "Point", "coordinates": [-2.3149782258922684, 30.10710709288146]}}, {"type": "Feature", "properties": {"norad_id": 34671, "name": "COSMOS 2251 DEB", "group": "cosmos-2251-debris", "lat": -36.68304801521228, "lon": 131.23479079174044, "alt_km": 678.6382281680981, "timestamp": "2025-12-07T22:37:43.476915+00:00", "meta": {"OBJECT_NAME": "COSMOS 2251 DEB", "OBJECT_ID": "1993-036XR", "EPOCH": "2025-12-07T05:36:10.147392", "MEAN_MOTION": 14.66774726, "ECCENTRICITY": 0.00118669, "INCLINATION": 74.0261, "RA_OF_ASC_NODE": 144.9237, "ARG_OF_PERICENTER": 224.0954, "MEAN_ANOMALY": 312.9906, "EPHEMERIS_TYPE": 0, "CLASSIFICATION_TYPE": "U", "NORAD_CAT_ID": 34671, "ELEMENT_SET_NO": 999, "REV_AT_EPOCH": 88216, "BSTAR": 0.0026578307, "MEAN_MOTION_DOT": 0.00014837, "MEAN_MOTION_DDOT": 0}, "tle": {"line1": "1 34671U 93036XR  25341.23345078  .00014837  00000+0  26578-2 0  9991", "line2": "2 34671  74.0261 144.9237 0011866 224.0954 312.9906 14.66774726882166"}}, "geometry": {"type": "Point", "coordinates": [131.23479079174044, -36.68304801521228]}}, {"type": "Feature", "properties": {"norad_id": 34672, "name": "COSMOS 2251 DEB", "group": "cosmos-2251-debris", "lat": -50.94007431279734, "lon": -66.25397870452285, "alt_km": 774.4749044543532, "timestamp": "2025-12-07T22:37:43.476926+00:00", "meta": {"OBJECT_NAME": "COSMOS 2251 DEB", "OBJECT_ID": "1993-036XS", "EPOCH": "2025-12-05T16:32:33.080064", "MEAN_MOTION": 14.36390754, "ECCENTRICITY": 0.0023475, "INCLINATION": 74.0334, "RA_OF_ASC_NODE": 318.5432, "ARG_OF_PERICENTER": 32.3823, "MEAN_ANOMALY": 145.4069, "EPHEMERIS_TYPE": 0, "CLASSIFICATION_TYPE": "U", "NORAD_CAT_ID": 34672, "ELEMENT_SET_NO": 999, "REV_AT_EPOCH": 65076, "BSTAR": 0.00046522033, "MEAN_MOTION_DOT": 1.341e-05, "MEAN_MOTION_DDOT": 0}, "tle": {"line1": "1 34672U 93036XS  25339.68927176  .00001341  00000+0  46522-3 0  9991", "line2": "2 34672  74.0334 318.5432 0023475  32.3823 145.4069 14.36390754650768"}}, "geometry": {"type": "Point", "coordinates": [-66.25397870452285, -50.94007431279734]}}, {"type": "Feature", "properties": {"norad_id": 34678, "name": "COSMOS 2251 DEB", "group": "cosmos-2251-debris", "lat": -55.37221537778053, "lon": -141.1004389208712, "alt_km": 815.5224078700612, "timestamp": "2025-12-07T22:37:43.476936+00:00", "meta": {"OBJECT_NAME": "COSMOS 2251 DEB", "OBJECT_ID": "1993-036XY", "EPOCH": "2025-12-07T06:59:19.007808", "MEAN_MOTION": 14.30063709, "ECCENTRICITY": 0.00243028, "INCLINATION": 74.0381, "RA_OF_ASC_NODE": 15.5988, "ARG_OF_PERICENTER": 66.4846, "MEAN_ANOMALY": 58.6638, "EPHEMERIS_TYPE": 0, "CLASSIFICATION_TYPE": "U", "NORAD_CAT_ID": 34678, "ELEMENT_SET_NO": 999, "REV_AT_EPOCH": 87301, "BSTAR": 5.3614982e-05, "MEAN_MOTION_DOT": 1.13e-06, "MEAN_MOTION_DDOT": 0}, "tle": {"line1": "1 34678U 93036XY  25341.29119222  .00000113  00000+0  53615-4 0  9990", "line2": "2 34678  74.0381  15.5988 0024302  66.4846  58.6638 14.30063709873012"}}, "geometry": {"type": "Point", "coordinates": [-141.1004389208712, -55.37221537778053]}}, {"type": "Feature", "properties": {"norad_id": 34680, "name": "COSMOS 2251 DEB", "group": "cosmos-2251-debris", "lat": -5.535975792164208, "lon": 137.427097362522, "alt_km": 697.2642856213079, "timestamp": "2025-12-07T22:37:43.476946+00:00", "meta": {"OBJECT_NAME": "COSMOS 2251 DEB", "OBJECT_ID": "1993-036YA", "EPOCH": "2025-12-06T10:37:40.709856", "MEAN_MOTION": 14.60516338, "ECCENTRICITY": 0.00069089, "INCLINATION": 74.0423, "RA_OF_ASC_NODE": 141.8787, "ARG_OF_PERICENTER": 236.4719, "MEAN_ANOMALY": 154.0251, "EPHEMERIS_TYPE": 0, "CLASSIFICATION_TYPE": "U", "NORAD_CAT_ID": 34680, "ELEMENT_SET_NO": 999, "REV_AT_EPOCH": 88236, "BSTAR": 0.0020988404, "MEAN_MOTION_DOT": 0.00010176, "MEAN_MOTION_DDOT": 0}, "tle": {"line1": "1 34680U 93036YA  25340.44283229  .00010176  00000+0  20988-2 0  9993", "line2": "2 34680  74.0423 141.8787 0006908 236.4719 154.0251 14.60516338882366"}}, "geometry": {"type": "Point", "coordinates": [137.427097362522, -5.535975792164208]}}, {"type": "Feature", "properties": {"norad_id": 34681, "name": "COSMOS 2251 DEB", "group": "cosmos-2251-debris", "lat": -13.338254218003083, "lon": 123.7607880337162, "alt_km": 641.2152183059698, "timestamp": "2025-12-07T22:37:43.476957+00:00", "meta": {"OBJECT_NAME": "COSMOS 2251 DEB", "OBJECT_ID": "1993-036YB", "EPOCH": "2025-12-07T03:59:45.740832", "MEAN_MOTION": 14.83002114, "ECCENTRICITY": 0.00256708, "INCLINATION": 74.0634, "RA_OF_ASC_NODE": 301.4094, "ARG_OF_PERICENTER": 359.0799, "MEAN_ANOMALY": 11.6164, "EPHEMERIS_TYPE": 0, "CLASSIFICATION_TYPE": "U", "NORAD_CAT_ID": 34681, "ELEMENT_SET_NO": 999, "REV_AT_EPOCH": 89188, "BSTAR": 0.002546806, "MEAN_MOTION_DOT": 0.00020851, "MEAN_MOTION_DDOT": 0}, "tle": {"line1": "1 34681U 93036YB  25341.16650163  .00020851  00000+0  25468-2 0  9998", "line2": "2 34681  74.0634 301.4094 0025670 359.0799  11.6164 14.83002114891888"}}, "geometry": {"type": "Point", "coordinates": [123.7607880337162, -13.338254218003083]}}]}